[
    {
        "Altitude(m)": 557166.8219123067,
        "Argument of Periapsis(deg)": 0.026491964442854003,
        "Eccentricity": 0.0,
        "Inclination(deg)": 53.0,
        "Latitude(deg)": -14.278610463860144,
        "Longitude(deg)": -9.17934168246621,
        "Mean Anomaly(deg)": -17.815328529689637,
        "RAAN(deg)": 104.96057347411208,
        "Satellite Name": "Starlink Shell 1 480",
        "Satellite Number": 480,
        "Semi-Major Axis(m)": 6931778.249405717,
        "Time(s)": 760
    },
    {
        "Altitude(m)": 557031.0269410679,
        "Argument of Periapsis(deg)": 0.02684054292236524,
        "Eccentricity": 0.0,
        "Inclination(deg)": 53.0,
        "Latitude(deg)": -13.78421706261882,
        "Longitude(deg)": -8.820892383980176,
        "Mean Anomaly(deg)": -17.188497326132865,
        "RAAN(deg)": 104.9600547040346,
        "Satellite Name": "Starlink Shell 1 480",
        "Satellite Number": 480,
        "Semi-Major Axis(m)": 6931778.249405717,
        "Time(s)": 770
    },
    {
        "Altitude(m)": 556897.3168417336,
        "Argument of Periapsis(deg)": 0.027189121401876473,
        "Eccentricity": 0.0,
        "Inclination(deg)": 53.0,
        "Latitude(deg)": -13.289143524548154,
        "Longitude(deg)": -8.464110062203797,
        "Mean Anomaly(deg)": -16.56166612257621,
        "RAAN(deg)": 104.95953593395713,
        "Satellite Name": "Starlink Shell 1 480",
        "Satellite Number": 480,
        "Semi-Major Axis(m)": 6931778.249405717,
        "Time(s)": 780
    },
    {
        "Altitude(m)": 556765.7336026059,
        "Argument of Periapsis(deg)": 0.02753769988138771,
        "Eccentricity": 0.0,
        "Inclination(deg)": 53.0,
        "Latitude(deg)": -12.793417147092745,
        "Longitude(deg)": -8.108927508119132,
        "Mean Anomaly(deg)": -15.934834919019513,
        "RAAN(deg)": 104.95901716387965,
        "Satellite Name": "Starlink Shell 1 480",
        "Satellite Number": 480,
        "Semi-Major Axis(m)": 6931778.249405717,
        "Time(s)": 790
    },
    {
        "Altitude(m)": 556636.3181187131,
        "Argument of Periapsis(deg)": 0.02788627836089895,
        "Eccentricity": 0.0,
        "Inclination(deg)": 53.0,
        "Latitude(deg)": -12.297064887171196,
        "Longitude(deg)": -7.755278696716522,
        "Mean Anomaly(deg)": -15.30800371546274,
        "RAAN(deg)": 104.95849839380217,
        "Satellite Name": "Starlink Shell 1 480",
        "Satellite Number": 480,
        "Semi-Major Axis(m)": 6931778.249405717,
        "Time(s)": 800
    },
    {
        "Altitude(m)": 556509.110174188,
        "Argument of Periapsis(deg)": 0.02823485684041019,
        "Eccentricity": 0.0,
        "Inclination(deg)": 53.0,
        "Latitude(deg)": -11.800113376686502,
        "Longitude(deg)": -7.403098256024869,
        "Mean Anomaly(deg)": -14.681172511906082,
        "RAAN(deg)": 104.95797962372471,
        "Satellite Name": "Starlink Shell 1 480",
        "Satellite Number": 480,
        "Semi-Major Axis(m)": 6931778.249405717,
        "Time(s)": 810
    },
    {
        "Altitude(m)": 556384.1484251665,
        "Argument of Periapsis(deg)": 0.028583435319921423,
        "Eccentricity": 0.0,
        "Inclination(deg)": 53.0,
        "Latitude(deg)": -11.30258893773924,
        "Longitude(deg)": -7.05232093617852,
        "Mean Anomaly(deg)": -14.054341308349326,
        "RAAN(deg)": 104.95746085364725,
        "Satellite Name": "Starlink Shell 1 480",
        "Satellite Number": 480,
        "Semi-Major Axis(m)": 6931778.249405717,
        "Time(s)": 820
    },
    {
        "Altitude(m)": 556261.4703832909,
        "Argument of Periapsis(deg)": 0.028932013799432665,
        "Eccentricity": 0.0,
        "Inclination(deg)": 53.0,
        "Latitude(deg)": -10.804517597560132,
        "Longitude(deg)": -6.702882591405205,
        "Mean Anomaly(deg)": -13.427510104792617,
        "RAAN(deg)": 104.95694208356977,
        "Satellite Name": "Starlink Shell 1 480",
        "Satellite Number": 480,
        "Semi-Major Axis(m)": 6931778.249405717,
        "Time(s)": 830
    },
    {
        "Altitude(m)": 556141.1123997229,
        "Argument of Periapsis(deg)": 0.029280592278943897,
        "Eccentricity": 0.0,
        "Inclination(deg)": 53.0,
        "Latitude(deg)": -10.305925103166997,
        "Longitude(deg)": -6.354719649197414,
        "Mean Anomaly(deg)": -12.800678901235958,
        "RAAN(deg)": 104.9564233134923,
        "Satellite Name": "Starlink Shell 1 480",
        "Satellite Number": 480,
        "Semi-Major Axis(m)": 6931778.249405717,
        "Time(s)": 840
    },
    {
        "Altitude(m)": 556023.1096497824,
        "Argument of Periapsis(deg)": 0.029629170758455132,
        "Eccentricity": 0.0,
        "Inclination(deg)": 53.0,
        "Latitude(deg)": -9.806836935762279,
        "Longitude(deg)": -6.007768579549922,
        "Mean Anomaly(deg)": -12.1738476976792,
        "RAAN(deg)": 104.95590454341482,
        "Satellite Name": "Starlink Shell 1 480",
        "Satellite Number": 480,
        "Semi-Major Axis(m)": 6931778.249405717,
        "Time(s)": 850
    },
    {
        "Altitude(m)": 555907.4961181324,
        "Argument of Periapsis(deg)": 0.02997774923796637,
        "Eccentricity": 0.0,
        "Inclination(deg)": 53.0,
        "Latitude(deg)": -9.307278324886559,
        "Longitude(deg)": -5.66196704523969,
        "Mean Anomaly(deg)": -11.54701649412249,
        "RAAN(deg)": 104.95538577333734,
        "Satellite Name": "Starlink Shell 1 480",
        "Satellite Number": 480,
        "Semi-Major Axis(m)": 6931778.249405717,
        "Time(s)": 860
    },
    {
        "Altitude(m)": 555794.3045845703,
        "Argument of Periapsis(deg)": 0.030326327717477602,
        "Eccentricity": 0.0,
        "Inclination(deg)": 53.0,
        "Latitude(deg)": -8.807274262331527,
        "Longitude(deg)": -5.317252530726487,
        "Mean Anomaly(deg)": -10.920185290565769,
        "RAAN(deg)": 104.95486700325986,
        "Satellite Name": "Starlink Shell 1 480",
        "Satellite Number": 480,
        "Semi-Major Axis(m)": 6931778.249405717,
        "Time(s)": 870
    },
    {
        "Altitude(m)": 555683.5666104294,
        "Argument of Periapsis(deg)": 0.030674906196988847,
        "Eccentricity": 0.0,
        "Inclination(deg)": 53.0,
        "Latitude(deg)": -8.306849515834802,
        "Longitude(deg)": -4.973563492590507,
        "Mean Anomaly(deg)": -10.293354087009025,
        "RAAN(deg)": 104.95434823318242,
        "Satellite Name": "Starlink Shell 1 480",
        "Satellite Number": 480,
        "Semi-Major Axis(m)": 6931778.249405717,
        "Time(s)": 880
    },
    {
        "Altitude(m)": 555575.3125255525,
        "Argument of Periapsis(deg)": 0.031023484676500086,
        "Eccentricity": 0.0,
        "Inclination(deg)": 53.0,
        "Latitude(deg)": -7.806028642560745,
        "Longitude(deg)": -4.630838829081829,
        "Mean Anomaly(deg)": -9.666522883452354,
        "RAAN(deg)": 104.95382946310494,
        "Satellite Name": "Starlink Shell 1 480",
        "Satellite Number": 480,
        "Semi-Major Axis(m)": 6931778.249405717,
        "Time(s)": 890
    },
    {
        "Altitude(m)": 555469.5714159056,
        "Argument of Periapsis(deg)": 0.03137206315601132,
        "Eccentricity": 0.0,
        "Inclination(deg)": 53.0,
        "Latitude(deg)": -7.304836002381617,
        "Longitude(deg)": -4.289017349753588,
        "Mean Anomaly(deg)": -9.039691679895594,
        "RAAN(deg)": 104.95331069302745,
        "Satellite Name": "Starlink Shell 1 480",
        "Satellite Number": 480,
        "Semi-Major Axis(m)": 6931778.249405717,
        "Time(s)": 900
    },
    {
        "Altitude(m)": 555366.3711118051,
        "Argument of Periapsis(deg)": 0.03172064163552255,
        "Eccentricity": 0.0,
        "Inclination(deg)": 53.0,
        "Latitude(deg)": -6.803295770975303,
        "Longitude(deg)": -3.9480387580533125,
        "Mean Anomaly(deg)": -8.4128604763389,
        "RAAN(deg)": 104.95279192294998,
        "Satellite Name": "Starlink Shell 1 480",
        "Satellite Number": 480,
        "Semi-Major Axis(m)": 6931778.249405717,
        "Time(s)": 910
    },
    {
        "Altitude(m)": 555265.7381767695,
        "Argument of Periapsis(deg)": 0.0320692201150338,
        "Eccentricity": 0.0,
        "Inclination(deg)": 53.0,
        "Latitude(deg)": -6.301431952744013,
        "Longitude(deg)": -3.607843121122807,
        "Mean Anomaly(deg)": -7.786029272782178,
        "RAAN(deg)": 104.95227315287251,
        "Satellite Name": "Starlink Shell 1 480",
        "Satellite Number": 480,
        "Semi-Major Axis(m)": 6931778.249405717,
        "Time(s)": 920
    },
    {
        "Altitude(m)": 555167.6978969992,
        "Argument of Periapsis(deg)": 0.032417798594545036,
        "Eccentricity": 0.0,
        "Inclination(deg)": 53.0,
        "Latitude(deg)": -5.799268393570287,
        "Longitude(deg)": -3.2683703396797834,
        "Mean Anomaly(deg)": -7.159198069225469,
        "RAAN(deg)": 104.95175438279503,
        "Satellite Name": "Starlink Shell 1 480",
        "Satellite Number": 480,
        "Semi-Major Axis(m)": 6931778.249405717,
        "Time(s)": 930
    },
    {
        "Altitude(m)": 555072.2742714944,
        "Argument of Periapsis(deg)": 0.03276637707405627,
        "Eccentricity": 0.0,
        "Inclination(deg)": 53.0,
        "Latitude(deg)": -5.2968287934237175,
        "Longitude(deg)": -2.929561130851318,
        "Mean Anomaly(deg)": -6.53236686566876,
        "RAAN(deg)": 104.95123561271758,
        "Satellite Name": "Starlink Shell 1 480",
        "Satellite Number": 480,
        "Semi-Major Axis(m)": 6931778.249405717,
        "Time(s)": 940
    }
]